#dP2025  1  8  6  0  0.00000000      96 __u+U IGS20 EXT  IAC
## 2348 280800.00000000   900.00000000 60683 0.2500000000000
+   53   G01G02G03G04G05G06G07G08G09G10G11G12G13G14G15G16G17
+        G18G19G20G21G22G23G24G25G26G27G28G29G30G31G32R01R02
+        R03R04R05R07R08R09R11R12R14R15R16R17R18R19R20R21R22
+        R24R26  0  0  0  0  0  0  0  0  0  0  0  0  0  0  0
+          0  0  0  0  0  0  0  0  0  0  0  0  0  0  0  0  0
++         9  7  8  8  8  7  7  8  9  8  8  8  7  8  7  7  8
++         7  8  7  7  7  7  7  7  8  8  7  7  8  8  8  8 10
++         7  8  7  8  9  9  9  9  8  9  9  8  7  8  9  9  9
++         8 10  0  0  0  0  0  0  0  0  0  0  0  0  0  0  0
++         0  0  0  0  0  0  0  0  0  0  0  0  0  0  0  0  0
%c M  cc GPS ccc cccc cccc cccc cccc ccccc ccccc ccccc ccccc
%c cc cc ccc ccc cccc cccc cccc cccc ccccc ccccc ccccc ccccc
%f  0.0000000  0.000000000  0.00000000000  0.000000000000000
%f  0.0000000  0.000000000  0.00000000000  0.000000000000000
%i    0    0    0    0      0      0      0      0         0
%i    0    0    0    0      0      0      0      0         0
/* IAC                                ULTRA-RAPID PREDICTION
/* S/V CLOCKS ARE ALIGNED TO GNSS TIME                      
/* G:C1WC2W R:C1PC2P E:C1XC5X C:C2IC6I J:C1CC2S             
/* PCV:IGS20_2317 OL/AL:FES2004  NONE     YN ORB:CoN CLK:CoN
*  2025 01 08 10  0  0.00000000
PG01 -14655.878323  12093.697628  18563.987377     30.858029
PG02 -13868.037418  10135.599953  20619.189711   -272.899495
PG03 -23280.155235  12618.259324  -1113.277208    641.935885
PG04 -16522.727377   5408.468451 -20104.343839    508.707087
PG05  22976.078162  -2877.598349 -13244.828635   -198.408641
PG06   6221.117416  22900.490365 -11729.435611   -103.555949
PG07  -6815.782368  23986.178194  -7925.889248    -13.718078
PG08 -23338.142310  -3356.872444  12533.965593    456.498728
PG09  -7988.583604  13002.021282 -21832.230921    520.372150
PG10  -3026.341361 -14793.674127  22047.983806   -267.945784
PG11  12452.743624  12766.086737 -19659.430350   -752.172677
PG12  24694.476742  -9564.917550   1406.424983   -563.227508
PG13  22176.426345  12986.570122   6955.060074    692.791959
PG14  -1109.741263  16973.200726  20390.125769    575.998282
PG15  23267.622843    237.871685  12414.051901    249.171909
PG16 -20857.562391  -3991.093071 -16584.622759    -83.063323
PG17   7116.272731  19566.278035  16777.740284    483.802311
PG18   5899.486568 -25006.462281  -6214.076507   -658.562137
PG19  16119.466573  19851.974916   7828.253515    583.686792
PG20  15710.996209   6071.603980 -20418.632210    367.240289
PG21 -15285.722308   1875.413457  21963.988712    100.421410
PG22   6555.738716  13970.727766  21994.000203    -91.162884
PG23  11834.292721 -18117.992938  15282.851564    399.723205
PG24  14505.824248  -8116.826286  20169.144750   -466.103930
PG25  17401.117491 -17464.499334  -9883.168775    497.055868
PG26 -12583.866364 -10648.736068 -21061.002397    -39.878292
PG27 -23450.801065 -12661.958320   2509.212195    -33.317713
PG28  -6367.043892 -23896.875917  -9701.065144   -530.008844
PG29   8802.544098 -12237.042692 -21912.425292   -548.989369
PG30   1149.106255  26218.081503   3149.081878   -243.780268
PG31 -11106.367296 -16884.778911 -17291.386474   -218.329872
PG32 -12615.751973 -19197.916777  13739.304898   -545.391081
PR01  22260.160630  -1691.653327  12351.708073    110.522309
PR02   8216.531926  -8793.409679  22526.857599    -38.631013
PR03 -10935.480334 -11889.068766  19813.436376    114.600833
PR04 -23188.071009  -8481.220484   6478.539804    271.675145
PR05 -23313.832455   -633.049895 -10350.989109    143.430104
PR07  11189.528929  11841.352478 -19564.123779     98.484329
PR08  23373.445078   8114.996329  -6056.620492     -6.315586
PR09 -13987.793228  20579.614362   5426.296048    230.880163
PR11  10341.420847   4728.782950  22839.195160      0.757405
PR12  18855.657431 -12066.617391  12231.579323     49.373663
PR14   2067.972777 -16497.007334 -19348.206444     27.566546
PR15 -11627.254210  -3283.498075 -22453.484175     72.395840
PR16 -18736.427733  12059.715783 -12383.882433     32.306516
PR17  -7656.655605 -24309.612531    286.107826    155.641451
PR18 -12148.213892 -16191.534256  15576.720900    180.879564
PR19 -11136.411647  -2088.255881  22859.276535   -304.777986
PR20  -2953.334459  18857.037138  16913.386896   -124.282690
PR21   6862.796946  24560.575254   1009.381388   -166.387093
PR22  12206.165377  15286.155488 -16332.682243    -54.867459
PR24   2044.429461 -19442.630880 -16354.646591    -87.323081
PR26  22600.607990   8714.023466  -8003.195585   -132.011123
*  2025 01 08 10 15  0.00000000
PG01 -14568.528242   9892.944913  19889.506806     30.887725
PG02 -14112.813626   7826.397232  21494.912991   -272.891305
PG03 -23319.717023  12426.647644   1801.853670    641.942807
PG04 -18335.394244   4115.474738 -18811.938754    508.712423
PG05  21691.681257  -1896.372848 -15429.889195   -198.409578
PG06   6018.317583  24099.568144  -9157.291525   -103.580408
PG07  -7100.324988  22844.180865 -10505.639665    -13.717653
PG08 -24378.030349  -4171.043287  10144.851098    456.505952
PG09 -10131.111885  11778.712071 -21641.723902    520.385838
PG10   -870.660752 -15926.629852  21404.492458   -267.960345
PG11  12203.538818  14928.773812 -18249.893067   -752.172000
PG12  24483.036632  -9179.520457   4240.789996   -563.229494
PG13  22563.029589  13556.208631   4183.125096    692.793093
PG14  -3177.192568  17927.133174  19304.195404    576.004829
PG15  24424.996454    995.301884  10036.952023    249.176008
PG16 -19158.069614  -4888.824373 -18301.794847    -83.054826
PG17   5421.432595  18586.313040  18497.875986    483.786828
PG18   6090.875779 -24124.949472  -8930.457717   -658.561067
PG19  15163.992734  19378.592379  10407.283748    583.690915
PG20  13906.341930   7659.170342 -21187.776676    367.240032
PG21 -15519.184918   -548.217886  21971.197320    100.422630
PG22   4337.654488  14962.810948  21916.219273    -91.164770
PG23  13309.627921 -18804.144979  13052.772358    399.729980
PG24  14811.405978  -5677.574416  20794.121373   -466.100476
PG25  18358.067459 -17701.429670  -7270.036959    497.055377
PG26 -10611.852626 -12012.796758 -21378.295881    -39.891869
PG27 -23472.143602 -12937.622016   -313.993806    -33.317291
PG28  -6147.397023 -24858.065821  -7065.473545   -530.017698
PG29  10831.412916 -10799.041304 -21769.329594   -548.986313
PG30    799.497444  26399.599128    338.869464   -243.772742
PG31 -10843.341428 -18720.657827 -15408.616992   -218.329135
PG32 -11109.912228 -18507.689137  15841.860468   -545.385036
PR01  23614.172888  -1616.289138   9523.770398    110.523493
PR02  10885.926931  -8315.212979  21547.572798    -38.630836
PR03  -8469.745959 -11344.349937  21283.780592    114.601401
PR04 -22258.987719  -8116.776284   9508.089511    271.676518
PR05 -24421.886354   -680.644855  -7369.161141    143.430634
PR07   8727.038522  11298.729925 -21080.987736     98.485040
PR08  22473.392487   7785.954806  -9102.059068     -6.315589
PR09 -14218.551011  21002.531515   2282.663217    230.882197
PR11   8515.555524   6890.369660  23040.834272      0.755081
PR12  17697.090070 -10863.891871  14820.653480     49.374108
PR14   3465.768281 -18286.419149 -17448.578089     27.566646
PR15  -9801.459059  -5407.573687 -22909.254709     72.395535
PR16 -17555.166668  10845.698798 -14970.103063     32.306869
PR17  -7775.516246 -24092.985954  -2941.164766    155.644425
PR18 -12855.350128 -17813.209851  13031.711059    180.881306
PR19 -11976.703295  -4730.604798  22024.871701   -304.778913
PR20  -3447.282322  16692.039773  18974.854148   -124.283005
PR21   6948.105654  24192.160010   4222.473244   -166.389965
PR22  12859.925127  17044.141762 -13915.951358    -54.869354
PR24   2662.739096 -17378.177539 -18453.106113    -87.324525
PR26  21475.384483   8350.200297 -10940.477600   -132.010805
EOF
